[
  {
    "id": "nEhDQqf2ea",
    "name": "808",
    "address": {
      "street": 25,
      "postalCode": 27
    },
    "latitude": 51.45693,
    "longitude": -2.59776
  },
  {
    "id": "QGdT9OROnR",
    "name": "The Albion",
    "address": {
      "street": 38,
      "postalCode": 39
    },
    "latitude": 51.45502,
    "longitude": -2.61791
  },
  {
    "id": "VMHHcyHTsg",
    "name": "All in One",
    "address": {
      "street": 46,
      "postalCode": 47
    },
    "latitude": 51.45439,
    "longitude": -2.60235
  },
  {
    "id": "KWMPxOSpM2",
    "name": "The All Inn",
    "address": {
      "street": 54,
      "postalCode": 55
    },
    "latitude": 51.48189,
    "longitude": -2.52319
  },
  {
    "id": "08a8W4RCmt",
    "name": "All Stars",
    "address": {
      "street": 62,
      "postalCode": 63
    },
    "latitude": 51.4557,
    "longitude": -2.6051
  },
  {
    "id": "fh8ijB2VRj",
    "name": "Alma Tavern & Theatre",
    "address": {
      "street": 70,
      "postalCode": 71
    },
    "latitude": 51.46258,
    "longitude": -2.61483
  },
  {
    "id": "pP7yF1I39K",
    "name": "Alpha Bottle Shop & Tap",
    "address": {
      "street": 78,
      "postalCode": 79
    },
    "latitude": 51.44261,
    "longitude": -2.59574
  },
  {
    "id": "5FSn2DenBC",
    "name": "Alterego",
    "address": {
      "street": 86,
      "postalCode": 87
    },
    "latitude": 51.46307,
    "longitude": -2.60875
  },
  {
    "id": "HuhOw21VKk",
    "name": "The Anchor",
    "address": {
      "street": 94,
      "postalCode": 95
    },
    "latitude": 51.48135,
    "longitude": -2.58759
  },
  {
    "id": "DZUuN481RC",
    "name": "The Annexe Inn",
    "address": {
      "street": 102,
      "postalCode": 103
    },
    "latitude": 51.47938,
    "longitude": -2.58657
  },
  {
    "id": "z1YS5Oouav",
    "name": "Antix",
    "address": {
      "street": 46,
      "postalCode": 47
    },
    "latitude": 51.45433,
    "longitude": -2.60227
  },
  {
    "id": "N2HQYk47hp",
    "name": "The Apple",
    "address": {
      "street": 116,
      "postalCode": 117
    },
    "latitude": 51.45189,
    "longitude": -2.59233
  },
  {
    "id": "BNt24SWPWc",
    "name": "Apple Tree",
    "address": {
      "street": 124,
      "postalCode": 125
    },
    "latitude": 51.44312,
    "longitude": -2.59346
  },
  {
    "id": "3Ao6Ic2sOd",
    "name": "Arbor Ales",
    "address": {
      "street": 132,
      "postalCode": 133
    },
    "latitude": 51.46219,
    "longitude": -2.56598
  },
  {
    "id": "vUYExrILdE",
    "name": "The Architect",
    "address": {
      "street": 140,
      "postalCode": 141
    },
    "latitude": 51.4497,
    "longitude": -2.59739
  },
  {
    "id": "fJlkruIUFs",
    "name": "Arnolfini Cafe Bar",
    "address": {
      "street": 140,
      "postalCode": 141
    },
    "latitude": 51.4492,
    "longitude": -2.59749
  },
  {
    "id": "PwhPn1L5y4",
    "name": "Artist Residence",
    "address": {
      "street": 154,
      "postalCode": 155
    },
    "latitude": 51.46141,
    "longitude": -2.58632
  },
  {
    "id": "xQTr2iK7cg",
    "name": "The Ashville",
    "address": {
      "street": 162,
      "postalCode": 163
    },
    "latitude": 51.44431,
    "longitude": -2.61322
  },
  {
    "id": "h5NsOqcqyq",
    "name": "Attic Bar",
    "address": {
      "street": 170,
      "postalCode": 171
    },
    "latitude": 51.4603,
    "longitude": -2.59023
  },
  {
    "id": "jeixqKkmd5",
    "name": "The Avon Packet",
    "address": {
      "street": 178,
      "postalCode": 179
    },
    "latitude": 51.44578,
    "longitude": -2.6112
  },
  {
    "id": "WVNGfeu5mt",
    "name": "Avonmouth Tavern",
    "address": {
      "street": 186,
      "postalCode": 187
    },
    "latitude": 51.49822,
    "longitude": -2.69716
  },
  {
    "id": "aBo6fVjXMn",
    "name": "Bag of Nails",
    "address": {
      "street": 194,
      "postalCode": 195
    },
    "latitude": 51.45105,
    "longitude": -2.60762
  },
  {
    "id": "bHAuR3uWFF",
    "name": "The Balloon",
    "address": {
      "street": 202,
      "postalCode": 203
    },
    "latitude": 51.45656,
    "longitude": -2.61328
  },
  {
    "id": "7RVvo63855",
    "name": "Bank",
    "address": {
      "street": 210,
      "postalCode": 211
    },
    "latitude": 51.44154,
    "longitude": -2.57766
  },
  {
    "id": "TZSupgL95X",
    "name": "The Bank",
    "address": {
      "street": 218,
      "postalCode": 219
    },
    "latitude": 51.45617,
    "longitude": -2.5939
  },
  {
    "id": "OJBjMCA2Oo",
    "name": "Bar + Block",
    "address": {
      "street": 226,
      "postalCode": 227
    },
    "latitude": 51.45193,
    "longitude": -2.59286
  },
  {
    "id": "QoXzMt6SIX",
    "name": "Bar 57",
    "address": {
      "street": 170,
      "postalCode": 234
    },
    "latitude": 51.44076,
    "longitude": -2.60405
  },
  {
    "id": "TfHRP61Zn0",
    "name": "Barbara\u2019s Bier Haus",
    "address": {
      "street": 241,
      "postalCode": 242
    },
    "latitude": 51.45012,
    "longitude": -2.59912
  },
  {
    "id": "9eu30Vi2s1",
    "name": "The Barley Mow",
    "address": {
      "street": 249,
      "postalCode": 79
    },
    "latitude": 51.44326,
    "longitude": -2.59442
  },
  {
    "id": "hqd6fyyu1K",
    "name": "Barley Mow",
    "address": {
      "street": 256,
      "postalCode": 257
    },
    "latitude": 51.45331,
    "longitude": -2.5774
  },
  {
    "id": "nlmvwZYNlz",
    "name": "Barrel House",
    "address": {
      "street": 264,
      "postalCode": 265
    },
    "latitude": 51.45622,
    "longitude": -2.61309
  },
  {
    "id": "N02SMSVpFB",
    "name": "Basement Beer",
    "address": {
      "street": 272,
      "postalCode": 273
    },
    "latitude": 51.46187,
    "longitude": -2.58943
  },
  {
    "id": "iKzjAvmCmJ",
    "name": "The Bay Horse",
    "address": {
      "street": 280,
      "postalCode": 281
    },
    "latitude": 51.45775,
    "longitude": -2.59314
  },
  {
    "id": "2uZ1IxyrEZ",
    "name": "BBB",
    "address": {
      "street": 288,
      "postalCode": 289
    },
    "latitude": 51.45638,
    "longitude": -2.57965
  },
  {
    "id": "yVYTp6aJzA",
    "name": "Be At One",
    "address": {
      "street": 202,
      "postalCode": 296
    },
    "latitude": 51.45637,
    "longitude": -2.60675
  },
  {
    "id": "VO8qW2vFQ0",
    "name": "The Bear",
    "address": {
      "street": 303,
      "postalCode": 304
    },
    "latitude": 51.45027,
    "longitude": -2.61927
  },
  {
    "id": "GN9IdYaR7f",
    "name": "Bear & Rugged Staff",
    "address": {
      "street": 311,
      "postalCode": 312
    },
    "latitude": 51.49725,
    "longitude": -2.59792
  },
  {
    "id": "nLHfr3bIrV",
    "name": "The Beaufort",
    "address": {
      "street": 319,
      "postalCode": 320
    },
    "latitude": 51.46657,
    "longitude": -2.58743
  },
  {
    "id": "Eeb1cstgtm",
    "name": "Beaufort Arms",
    "address": {
      "street": 327,
      "postalCode": 328
    },
    "latitude": 51.46992,
    "longitude": -2.61622
  },
  {
    "id": "GuLeFBPt9O",
    "name": "The Beckford",
    "address": {
      "street": 335,
      "postalCode": 336
    },
    "latitude": 51.45888,
    "longitude": -2.60349
  },
  {
    "id": "8KXBclJOCc",
    "name": "The Beehive",
    "address": {
      "street": 343,
      "postalCode": 344
    },
    "latitude": 51.49172,
    "longitude": -2.59592
  },
  {
    "id": "4J2WvcMB5l",
    "name": "The Beer Emporium",
    "address": {
      "street": 226,
      "postalCode": 351
    },
    "latitude": 51.45169,
    "longitude": -2.59448
  },
  {
    "id": "1FdvQeDu1Y",
    "name": "Beer Necessities",
    "address": {
      "street": 358,
      "postalCode": 359
    },
    "latitude": 51.447,
    "longitude": -2.59915
  },
  {
    "id": "5GmmSmSKEz",
    "name": "Beeses",
    "address": {
      "street": 366,
      "postalCode": 367
    },
    "latitude": 51.44443,
    "longitude": -2.53574
  },
  {
    "id": "vkyz22pDoq",
    "name": "The Bell",
    "address": {
      "street": 374,
      "postalCode": 375
    },
    "latitude": 51.4625,
    "longitude": -2.59114
  },
  {
    "id": "Aggknqb1RV",
    "name": "The Berkeley",
    "address": {
      "street": 202,
      "postalCode": 63
    },
    "latitude": 51.45574,
    "longitude": -2.60529
  },
  {
    "id": "01o2D8FwrI",
    "name": "The Birkett Tap",
    "address": {
      "street": 388,
      "postalCode": 389
    },
    "latitude": 51.45321,
    "longitude": -2.59552
  },
  {
    "id": "7uuTg4dwFa",
    "name": "Bishops Tavern",
    "address": {
      "street": 396,
      "postalCode": 397
    },
    "latitude": 51.46979,
    "longitude": -2.59379
  },
  {
    "id": "lutyXnYj79",
    "name": "Black Castle",
    "address": {
      "street": 404,
      "postalCode": 405
    },
    "latitude": 51.44334,
    "longitude": -2.56076
  },
  {
    "id": "jYjtV2RfBD",
    "name": "The Black Cat",
    "address": {
      "street": 288,
      "postalCode": 412
    },
    "latitude": 51.43944,
    "longitude": -2.60208
  },
  {
    "id": "A912NN0eLV",
    "name": "The Black Horse",
    "address": {
      "street": 419,
      "postalCode": 420
    },
    "latitude": 51.46289,
    "longitude": -2.51228
  },
  {
    "id": "8R1HVbFAVF",
    "name": "The Black Swan",
    "address": {
      "street": 427,
      "postalCode": 428
    },
    "latitude": 51.48944,
    "longitude": -2.62286
  },
  {
    "id": "eBm0ZgEO3L",
    "name": "The Black Swan",
    "address": {
      "street": 434,
      "postalCode": 435
    },
    "latitude": 51.46996,
    "longitude": -2.56532
  },
  {
    "id": "j4iKuKO6CX",
    "name": "Blaise Inn",
    "address": {
      "street": 442,
      "postalCode": 443
    },
    "latitude": 51.50706,
    "longitude": -2.63243
  },
  {
    "id": "FQbaX4AP1G",
    "name": "The Blue Lagoon",
    "address": {
      "street": 94,
      "postalCode": 450
    },
    "latitude": 51.47141,
    "longitude": -2.59295
  },
  {
    "id": "dkygVCclGv",
    "name": "The Boardroom",
    "address": {
      "street": 457,
      "postalCode": 458
    },
    "latitude": 51.45387,
    "longitude": -2.59364
  },
  {
    "id": "5mnTEvSKrx",
    "name": "Bocabar",
    "address": {
      "street": 465,
      "postalCode": 466
    },
    "latitude": 51.44315,
    "longitude": -2.56846
  },
  {
    "id": "VfoGHh9iwV",
    "name": "The Bootlegger",
    "address": {
      "street": 396,
      "postalCode": 397
    },
    "latitude": 51.46994,
    "longitude": -2.59385
  },
  {
    "id": "yPfo4Jx5wm",
    "name": "The Botanist",
    "address": {
      "street": 479,
      "postalCode": 480
    },
    "latitude": 51.45577,
    "longitude": -2.60603
  },
  {
    "id": "8ukilVATbQ",
    "name": "The Bottle & Jug Bar",
    "address": {
      "street": 94,
      "postalCode": 487
    },
    "latitude": 51.47289,
    "longitude": -2.59132
  },
  {
    "id": "JdHKQiBGNH",
    "name": "Brace & Browns",
    "address": {
      "street": 86,
      "postalCode": 494
    },
    "latitude": 51.46164,
    "longitude": -2.60807
  },
  {
    "id": "sAK8j7HYX4",
    "name": "The Brass Pig",
    "address": {
      "street": 501,
      "postalCode": 502
    },
    "latitude": 51.45625,
    "longitude": -2.60842
  },
  {
    "id": "xvknjyiPC7",
    "name": "BrewDog Baldwin Street",
    "address": {
      "street": 388,
      "postalCode": 509
    },
    "latitude": 51.45359,
    "longitude": -2.59249
  },
  {
    "id": "zEhJpfpHYt",
    "name": "BrewDog Harbourside",
    "address": {
      "street": 516,
      "postalCode": 517
    },
    "latitude": 51.44971,
    "longitude": -2.60245
  },
  {
    "id": "BWdbqvbKsJ",
    "name": "Brewhouse & Kitchen",
    "address": {
      "street": 524,
      "postalCode": 525
    },
    "latitude": 51.46403,
    "longitude": -2.60838
  },
  {
    "id": "lnK9ag11jA",
    "name": "The Bridge Inn",
    "address": {
      "street": 532,
      "postalCode": 533
    },
    "latitude": 51.45426,
    "longitude": -2.58618
  },
  {
    "id": "HwanPOcrkv",
    "name": "Bristol & Bath Distillery",
    "address": {
      "street": 46,
      "postalCode": 540
    },
    "latitude": 51.45553,
    "longitude": -2.60437
  },
  {
    "id": "Kv41pUQlr4",
    "name": "Bristol Beer Factory",
    "address": {
      "street": 170,
      "postalCode": 547
    },
    "latitude": 51.44266,
    "longitude": -2.61528
  },
  {
    "id": "it9cUED3Y2",
    "name": "Bristol Flyer",
    "address": {
      "street": 94,
      "postalCode": 554
    },
    "latitude": 51.47465,
    "longitude": -2.59179
  },
  {
    "id": "Qt5oUunqhu",
    "name": "The Bristol Fringe",
    "address": {
      "street": 561,
      "postalCode": 562
    },
    "latitude": 51.4545,
    "longitude": -2.62081
  },
  {
    "id": "MA0k2ZeMcD",
    "name": "Bristol Old Vic Kitchen + Bar",
    "address": {
      "street": 226,
      "postalCode": 569
    },
    "latitude": 51.45203,
    "longitude": -2.59431
  },
  {
    "id": "DrNO3ICRcO",
    "name": "Brown & Bye",
    "address": {
      "street": 576,
      "postalCode": 577
    },
    "latitude": 51.44983,
    "longitude": -2.60641
  },
  {
    "id": "YZL8fPhFGz",
    "name": "Brozen Bar",
    "address": {
      "street": 457,
      "postalCode": 584
    },
    "latitude": 51.45374,
    "longitude": -2.59469
  },
  {
    "id": "m94Neo9vdF",
    "name": "Bruhaha",
    "address": {
      "street": 210,
      "postalCode": 591
    },
    "latitude": 51.44083,
    "longitude": -2.57476
  },
  {
    "id": "ZsurU9cUZg",
    "name": "The Brunel",
    "address": {
      "street": 598,
      "postalCode": 599
    },
    "latitude": 51.43568,
    "longitude": -2.59482
  },
  {
    "id": "oyAlKfZyF3",
    "name": "The Brunel",
    "address": {
      "street": 605,
      "postalCode": 606
    },
    "latitude": 51.4556,
    "longitude": -2.62117
  },
  {
    "id": "DeLdimTPSH",
    "name": "bSb",
    "address": {
      "street": 613,
      "postalCode": 242
    },
    "latitude": 51.45081,
    "longitude": -2.59838
  },
  {
    "id": "qdAWwcFTJh",
    "name": "The Cadbury",
    "address": {
      "street": 620,
      "postalCode": 621
    },
    "latitude": 51.4674,
    "longitude": -2.58656
  },
  {
    "id": "PrBNVHAoze",
    "name": "The Cambridge Arms",
    "address": {
      "street": 628,
      "postalCode": 629
    },
    "latitude": 51.47412,
    "longitude": -2.61065
  },
  {
    "id": "5J4x4lJnYc",
    "name": "Canteen",
    "address": {
      "street": 636,
      "postalCode": 637
    },
    "latitude": 51.46294,
    "longitude": -2.58967
  },
  {
    "id": "DmBJllE6Xq",
    "name": "Carmen Street Wine",
    "address": {
      "street": 644,
      "postalCode": 645
    },
    "latitude": 51.46418,
    "longitude": -2.58931
  },
  {
    "id": "4yeII4eKMR",
    "name": "Cat and Wheel",
    "address": {
      "street": 396,
      "postalCode": 652
    },
    "latitude": 51.46881,
    "longitude": -2.59315
  },
  {
    "id": "md6VdW24Dn",
    "name": "Channings",
    "address": {
      "street": 659,
      "postalCode": 660
    },
    "latitude": 51.45881,
    "longitude": -2.61424
  },
  {
    "id": "TSoAE4CGJw",
    "name": "The Chelsea Inn",
    "address": {
      "street": 667,
      "postalCode": 668
    },
    "latitude": 51.46411,
    "longitude": -2.56295
  },
  {
    "id": "g87DMCTDAS",
    "name": "Chophouse",
    "address": {
      "street": 675,
      "postalCode": 676
    },
    "latitude": 51.45821,
    "longitude": -2.58366
  },
  {
    "id": "KaAU5GaUh2",
    "name": "The Christmas Steps",
    "address": {
      "street": 683,
      "postalCode": 684
    },
    "latitude": 51.45601,
    "longitude": -2.59656
  },
  {
    "id": "Hy03vU3QjH",
    "name": "Chums",
    "address": {
      "street": 691,
      "postalCode": 692
    },
    "latitude": 51.46785,
    "longitude": -2.60531
  },
  {
    "id": "oloyYQsdCL",
    "name": "The Cider Box",
    "address": {
      "street": 699,
      "postalCode": 700
    },
    "latitude": 51.45074,
    "longitude": -2.57117
  },
  {
    "id": "Er3C1vG55u",
    "name": "The Cider Press",
    "address": {
      "street": 94,
      "postalCode": 554
    },
    "latitude": 51.47434,
    "longitude": -2.59185
  },
  {
    "id": "dVhuUF71bR",
    "name": "The Clifton",
    "address": {
      "street": 713,
      "postalCode": 714
    },
    "latitude": 51.45408,
    "longitude": -2.61798
  },
  {
    "id": "tN52MYwimq",
    "name": "Clifton Cocktail Club",
    "address": {
      "street": 86,
      "postalCode": 721
    },
    "latitude": 51.46496,
    "longitude": -2.60981
  },
  {
    "id": "nvXSlCVeNH",
    "name": "The Clockwork Rose",
    "address": {
      "street": 728,
      "postalCode": 729
    },
    "latitude": 51.45374,
    "longitude": -2.59522
  },
  {
    "id": "8zvR8Jo0lr",
    "name": "Clubhaus",
    "address": {
      "street": 116,
      "postalCode": 117
    },
    "latitude": 51.45119,
    "longitude": -2.5924
  },
  {
    "id": "2FZ0dpwmv5",
    "name": "The Clyde",
    "address": {
      "street": 741,
      "postalCode": 742
    },
    "latitude": 51.46881,
    "longitude": -2.60909
  },
  {
    "id": "dVXDGlcz3H",
    "name": "Coach & Horses",
    "address": {
      "street": 748,
      "postalCode": 749
    },
    "latitude": 51.46971,
    "longitude": -2.61532
  },
  {
    "id": "tsRXQF1bzs",
    "name": "Coach & Horses",
    "address": {
      "street": 755,
      "postalCode": 756
    },
    "latitude": 51.4576,
    "longitude": -2.57905
  },
  {
    "id": "2J2abS0N6w",
    "name": "Coffee + Beer",
    "address": {
      "street": 524,
      "postalCode": 763
    },
    "latitude": 51.4644,
    "longitude": -2.60868
  },
  {
    "id": "c3yXKmqEgn",
    "name": "Colosseum",
    "address": {
      "street": 770,
      "postalCode": 771
    },
    "latitude": 51.44841,
    "longitude": -2.59103
  },
  {
    "id": "f0BNzidV4H",
    "name": "The Commercial Rooms",
    "address": {
      "street": 778,
      "postalCode": 779
    },
    "latitude": 51.45458,
    "longitude": -2.59452
  },
  {
    "id": "4iwpN7XRgN",
    "name": "The Concorde",
    "address": {
      "street": 786,
      "postalCode": 787
    },
    "latitude": 51.4113,
    "longitude": -2.542
  },
  {
    "id": "8SK6kwmxAE",
    "name": "Coopers Arms",
    "address": {
      "street": 794,
      "postalCode": 795
    },
    "latitude": 51.44253,
    "longitude": -2.61762
  },
  {
    "id": "Dmbysm2s7T",
    "name": "The Cornubia",
    "address": {
      "street": 802,
      "postalCode": 803
    },
    "latitude": 51.45243,
    "longitude": -2.58785
  },
  {
    "id": "giaspz3Is7",
    "name": "The Coronation",
    "address": {
      "street": 810,
      "postalCode": 811
    },
    "latitude": 51.44431,
    "longitude": -2.60024
  },
  {
    "id": "jalgTi9scV",
    "name": "The Coronation Tap",
    "address": {
      "street": 817,
      "postalCode": 818
    },
    "latitude": 51.45524,
    "longitude": -2.62269
  },
  {
    "id": "r7LC9o7183",
    "name": "Cosies",
    "address": {
      "street": 154,
      "postalCode": 825
    },
    "latitude": 51.46087,
    "longitude": -2.58623
  },
  {
    "id": "Ei8rqK67Ib",
    "name": "The Cossham Inn",
    "address": {
      "street": 832,
      "postalCode": 833
    },
    "latitude": 51.46851,
    "longitude": -2.52079
  },
  {
    "id": "dKtDKLXLQD",
    "name": "Cosy Club",
    "address": {
      "street": 778,
      "postalCode": 779
    },
    "latitude": 51.45425,
    "longitude": -2.59512
  },
  {
    "id": "9132Tt9d70",
    "name": "Cotham Porter Stores",
    "address": {
      "street": 846,
      "postalCode": 847
    },
    "latitude": 51.46258,
    "longitude": -2.59796
  },
  {
    "id": "A0XHMtPK7A",
    "name": "The Cottage Inn",
    "address": {
      "street": 853,
      "postalCode": 854
    },
    "latitude": 51.44688,
    "longitude": -2.61592
  },
  {
    "id": "oaeflfP1M5",
    "name": "Coyote Ugly Saloon",
    "address": {
      "street": 861,
      "postalCode": 242
    },
    "latitude": 51.44966,
    "longitude": -2.59892
  },
  {
    "id": "hG1ijFEklO",
    "name": "Crafty Cow",
    "address": {
      "street": 94,
      "postalCode": 868
    },
    "latitude": 51.49233,
    "longitude": -2.58303
  },
  {
    "id": "xyTz6SqBuQ",
    "name": "The Criterion",
    "address": {
      "street": 875,
      "postalCode": 876
    },
    "latitude": 51.46632,
    "longitude": -2.58045
  },
  {
    "id": "IczQUybAih",
    "name": "The Croft",
    "address": {
      "street": 636,
      "postalCode": 883
    },
    "latitude": 51.46382,
    "longitude": -2.59007
  },
  {
    "id": "YYvRxDI9BP",
    "name": "Crofters Garden",
    "address": {
      "street": 875,
      "postalCode": 890
    },
    "latitude": 51.46458,
    "longitude": -2.58906
  },
  {
    "id": "2F7qBKHgsJ",
    "name": "The Crown",
    "address": {
      "street": 897,
      "postalCode": 898
    },
    "latitude": 51.45413,
    "longitude": -2.59281
  },
  {
    "id": "WaQeekIgoK",
    "name": "The Crown Tavern",
    "address": {
      "street": 905,
      "postalCode": 906
    },
    "latitude": 51.45857,
    "longitude": -2.57877
  },
  {
    "id": "m56c6Zt0N3",
    "name": "The Dame",
    "address": {
      "street": 810,
      "postalCode": 913
    },
    "latitude": 51.44242,
    "longitude": -2.60003
  },
  {
    "id": "cvC3USrvuI",
    "name": "Dareshack",
    "address": {
      "street": 920,
      "postalCode": 921
    },
    "latitude": 51.45551,
    "longitude": -2.59184
  },
  {
    "id": "lY9YVSxq9S",
    "name": "The Dark Horse",
    "address": {
      "street": 928,
      "postalCode": 929
    },
    "latitude": 51.45944,
    "longitude": -2.55228
  },
  {
    "id": "ola1HY9qBI",
    "name": "The Den and Terrace",
    "address": {
      "street": 936,
      "postalCode": 937
    },
    "latitude": 51.45885,
    "longitude": -2.61068
  },
  {
    "id": "peA3lGEd0C",
    "name": "Dirty Martini",
    "address": {
      "street": 778,
      "postalCode": 779
    },
    "latitude": 51.4546,
    "longitude": -2.59435
  },
  {
    "id": "RlTrJsnbQa",
    "name": "The Drapers Arms",
    "address": {
      "street": 94,
      "postalCode": 950
    },
    "latitude": 51.4853,
    "longitude": -2.58584
  },
  {
    "id": "reINUQKt7B",
    "name": "The Drawbridge",
    "address": {
      "street": 957,
      "postalCode": 958
    },
    "latitude": 51.45331,
    "longitude": -2.59841
  },
  {
    "id": "nsYjsbsiCT",
    "name": "The Duke of York",
    "address": {
      "street": 964,
      "postalCode": 965
    },
    "latitude": 51.46731,
    "longitude": -2.57564
  },
  {
    "id": "mUmVWx9udx",
    "name": "The Eastfield",
    "address": {
      "street": 972,
      "postalCode": 973
    },
    "latitude": 51.4892,
    "longitude": -2.60865
  },
  {
    "id": "BDIRypSpD2",
    "name": "El Rincon",
    "address": {
      "street": 170,
      "postalCode": 980
    },
    "latitude": 51.44318,
    "longitude": -2.6163
  },
  {
    "id": "5prPvEQXZm",
    "name": "The Eldon House",
    "address": {
      "street": 987,
      "postalCode": 988
    },
    "latitude": 51.45475,
    "longitude": -2.6106
  },
  {
    "id": "J1FKYMlO9a",
    "name": "The Elmers Arms",
    "address": {
      "street": 995,
      "postalCode": 996
    },
    "latitude": 51.45606,
    "longitude": -2.58088
  },
  {
    "id": "Kzm0IthnGs",
    "name": "Emmeline Spike Island",
    "address": {
      "street": 853,
      "postalCode": 1003
    },
    "latitude": 51.44688,
    "longitude": -2.61068
  },
  {
    "id": "8gbA7kPvWA",
    "name": "Essex Arms",
    "address": {
      "street": 419,
      "postalCode": 1008
    },
    "latitude": 51.46285,
    "longitude": -2.51812
  },
  {
    "id": "dHbVvTw9id",
    "name": "Exchange",
    "address": {
      "street": 995,
      "postalCode": 1015
    },
    "latitude": 51.45557,
    "longitude": -2.58279
  },
  {
    "id": "wzxSoiDPnv",
    "name": "The Famous Royal Navy Volunteer",
    "address": {
      "street": 226,
      "postalCode": 351
    },
    "latitude": 51.45163,
    "longitude": -2.59461
  },
  {
    "id": "PMjO5SXcp8",
    "name": "The Far Side",
    "address": {
      "street": 636,
      "postalCode": -5
    },
    "latitude": 51.46375,
    "longitude": -2.58954
  },
  {
    "id": "FDdt1fRRed",
    "name": "The Farm",
    "address": {
      "street": 1034,
      "postalCode": 1035
    },
    "latitude": 51.47448,
    "longitude": -2.57806
  },
  {
    "id": "HdwdNMS86w",
    "name": "Farm Tap",
    "address": {
      "street": 124,
      "postalCode": 125
    },
    "latitude": 51.44233,
    "longitude": -2.59267
  },
  {
    "id": "hN2SdFT6bZ",
    "name": "Felson's",
    "address": {
      "street": 778,
      "postalCode": 1048
    },
    "latitude": 51.45433,
    "longitude": -2.59412
  },
  {
    "id": "NqBCqorl30",
    "name": "Fierce & Noble Tap Room",
    "address": {
      "street": 1054,
      "postalCode": 1055
    },
    "latitude": 51.46741,
    "longitude": -2.57413
  },
  {
    "id": "DtuEa2sl9D",
    "name": "The Filthy Thirteen",
    "address": {
      "street": 396,
      "postalCode": 1062
    },
    "latitude": 51.46935,
    "longitude": -2.5931
  },
  {
    "id": "xPcVWIPtWb",
    "name": "The Fire Engine",
    "address": {
      "street": 928,
      "postalCode": 929
    },
    "latitude": 51.45953,
    "longitude": -2.55108
  },
  {
    "id": "9c7acANm0E",
    "name": "Fishponds Tap",
    "address": {
      "street": 1075,
      "postalCode": 1076
    },
    "latitude": 51.47945,
    "longitude": -2.53235
  },
  {
    "id": "iP0IEioiJZ",
    "name": "Foresters Arms",
    "address": {
      "street": 1083,
      "postalCode": 1084
    },
    "latitude": 51.48182,
    "longitude": -2.58362
  },
  {
    "id": "CQzdXSvyAp",
    "name": "Full Moon",
    "address": {
      "street": 170,
      "postalCode": 171
    },
    "latitude": 51.46051,
    "longitude": -2.59041
  },
  {
    "id": "1AvOxvG8IM",
    "name": "The Gallimaufry",
    "address": {
      "street": 94,
      "postalCode": 1097
    },
    "latitude": 51.47167,
    "longitude": -2.59266
  },
  {
    "id": "GQcoCvnOh8",
    "name": "Gatsby's",
    "address": {
      "street": 46,
      "postalCode": 47
    },
    "latitude": 51.45436,
    "longitude": -2.60231
  },
  {
    "id": "GLfOXMzbrU",
    "name": "The George",
    "address": {
      "street": 210,
      "postalCode": 1110
    },
    "latitude": 51.4382,
    "longitude": -2.5711
  },
  {
    "id": "O1qSHEE9DV",
    "name": "The George & Dragon",
    "address": {
      "street": 928,
      "postalCode": 1117
    },
    "latitude": 51.45926,
    "longitude": -2.55381
  },
  {
    "id": "N7jjodMvWv",
    "name": "The George Inn",
    "address": {
      "street": 327,
      "postalCode": 1124
    },
    "latitude": 51.48902,
    "longitude": -2.67459
  },
  {
    "id": "jhe2Y8rLmP",
    "name": "Gin & Juice",
    "address": {
      "street": 46,
      "postalCode": 1131
    },
    "latitude": 51.45421,
    "longitude": -2.60269
  },
  {
    "id": "nf1m7JhTCg",
    "name": "The Gloucester Old Spot",
    "address": {
      "street": 1138,
      "postalCode": 1139
    },
    "latitude": 51.48392,
    "longitude": -2.5981
  },
  {
    "id": "SDMOTFyoYN",
    "name": "Gloucester Road Ale House & Kitchen",
    "address": {
      "street": 94,
      "postalCode": 1146
    },
    "latitude": 51.47266,
    "longitude": -2.59104
  },
  {
    "id": "AaP11RlRrZ",
    "name": "The Gold Bar",
    "address": {
      "street": 778,
      "postalCode": 779
    },
    "latitude": 51.45476,
    "longitude": -2.59365
  },
  {
    "id": "U6NUolOIvX",
    "name": "Goldbrick House",
    "address": {
      "street": 46,
      "postalCode": 1159
    },
    "latitude": 51.45492,
    "longitude": -2.60357
  },
  {
    "id": "7UJkzZizld",
    "name": "Golden Guinea",
    "address": {
      "street": 1166,
      "postalCode": 1167
    },
    "latitude": 51.4473,
    "longitude": -2.59283
  },
  {
    "id": "Au6PRIIL0E",
    "name": "Golden Lion",
    "address": {
      "street": 94,
      "postalCode": 1174
    },
    "latitude": 51.47989,
    "longitude": -2.58964
  },
  {
    "id": "nPt8mvmzAn",
    "name": "Golden Lion",
    "address": {
      "street": 1075,
      "postalCode": 1180
    },
    "latitude": 51.47794,
    "longitude": -2.53583
  },
  {
    "id": "cnOAYLmIoo",
    "name": "Good Chemistry Brewing",
    "address": {
      "street": 1187,
      "postalCode": 1188
    },
    "latitude": 51.45418,
    "longitude": -2.57413
  },
  {
    "id": "23cDHqYklX",
    "name": "The Good Intent",
    "address": {
      "street": 1194,
      "postalCode": 1195
    },
    "latitude": 51.44026,
    "longitude": -2.5375
  },
  {
    "id": "lH51zJBxYD",
    "name": "The Good Measure",
    "address": {
      "street": 691,
      "postalCode": 1202
    },
    "latitude": 51.46723,
    "longitude": -2.60706
  },
  {
    "id": "b9nIfPvEnF",
    "name": "The Grace",
    "address": {
      "street": 94,
      "postalCode": 1209
    },
    "latitude": 51.4752,
    "longitude": -2.59085
  },
  {
    "id": "1pOgqb6hom",
    "name": "Grain Barge",
    "address": {
      "street": 303,
      "postalCode": 1216
    },
    "latitude": 51.44945,
    "longitude": -2.61227
  },
  {
    "id": "v7ByX5H3DG",
    "name": "The Granary Club",
    "address": {
      "street": 1223,
      "postalCode": 1224
    },
    "latitude": 51.45153,
    "longitude": -2.59304
  },
  {
    "id": "qzWXQebgm7",
    "name": "Green House",
    "address": {
      "street": 1231,
      "postalCode": 1232
    },
    "latitude": 51.45259,
    "longitude": -2.59939
  },
  {
    "id": "zQ3fPVv2vW",
    "name": "The Green Man",
    "address": {
      "street": 1239,
      "postalCode": 1240
    },
    "latitude": 51.4611,
    "longitude": -2.59899
  },
  {
    "id": "exvNySM5JB",
    "name": "The Greenbank",
    "address": {
      "street": 1247,
      "postalCode": 1248
    },
    "latitude": 51.46771,
    "longitude": -2.56119
  },
  {
    "id": "xrFqDhuCtg",
    "name": "Greenshank",
    "address": {
      "street": 1255,
      "postalCode": 1256
    },
    "latitude": 51.44853,
    "longitude": -2.60615
  },
  {
    "id": "SjJJzk6rCN",
    "name": "The Greyhound",
    "address": {
      "street": 1263,
      "postalCode": 1264
    },
    "latitude": 51.47551,
    "longitude": -2.53302
  },
  {
    "id": "dV6u0ve0Md",
    "name": "The Gryphon",
    "address": {
      "street": 1271,
      "postalCode": 1272
    },
    "latitude": 51.45555,
    "longitude": -2.59768
  },
  {
    "id": "0BbzhXRh1O",
    "name": "HallPass",
    "address": {
      "street": 1279,
      "postalCode": 1280
    },
    "latitude": 51.45532,
    "longitude": -2.59502
  },
  {
    "id": "RzdiRG6Age",
    "name": "Harbour Hub",
    "address": {
      "street": 1287,
      "postalCode": 1288
    },
    "latitude": 51.44994,
    "longitude": -2.60605
  },
  {
    "id": "2dahJJoj4j",
    "name": "The Hare on the Hill",
    "address": {
      "street": 1295,
      "postalCode": 1296
    },
    "latitude": 51.46359,
    "longitude": -2.59188
  },
  {
    "id": "7sXdi8UwTq",
    "name": "Hartcliffe Inn",
    "address": {
      "street": 1303,
      "postalCode": 1304
    },
    "latitude": 51.40504,
    "longitude": -2.60055
  },
  {
    "id": "cKdx61lQj1",
    "name": "The Harvesters",
    "address": {
      "street": 1311,
      "postalCode": 1312
    },
    "latitude": 51.41553,
    "longitude": -2.54756
  },
  {
    "id": "LmBS4Z7ube",
    "name": "The Hatchet Inn",
    "address": {
      "street": 1319,
      "postalCode": 1320
    },
    "latitude": 51.45396,
    "longitude": -2.60041
  },
  {
    "id": "OecojEGU0L",
    "name": "Hen & Chicken",
    "address": {
      "street": 170,
      "postalCode": 1327
    },
    "latitude": 51.44074,
    "longitude": -2.61064
  },
  {
    "id": "HIFg7NEOOa",
    "name": "Her Majesty's Secret Service",
    "address": {
      "street": 86,
      "postalCode": 1334
    },
    "latitude": 51.46453,
    "longitude": -2.61042
  },
  {
    "id": "wQoOR6Pfm2",
    "name": "Hey Dude Bar",
    "address": {
      "street": 226,
      "postalCode": 351
    },
    "latitude": 51.45159,
    "longitude": -2.59473
  },
  {
    "id": "XevI7HKboI",
    "name": "The Highbury Vaults",
    "address": {
      "street": 1347,
      "postalCode": 1348
    },
    "latitude": 51.46149,
    "longitude": -2.60244
  },
  {
    "id": "Z7QwhaZZCz",
    "name": "Hillgrove Porter Stores",
    "address": {
      "street": 1355,
      "postalCode": 1356
    },
    "latitude": 51.46305,
    "longitude": -2.59268
  },
  {
    "id": "EecjFLYPYw",
    "name": "The Hobgoblin",
    "address": {
      "street": 94,
      "postalCode": 1363
    },
    "latitude": 51.47203,
    "longitude": -2.59175
  },
  {
    "id": "IQOjRiQ2Ir",
    "name": "The Hole in the Wall",
    "address": {
      "street": 1370,
      "postalCode": 1371
    },
    "latitude": 51.4495,
    "longitude": -2.59346
  },
  {
    "id": "mTfd6PDL3q",
    "name": "Hop Union Brewery",
    "address": {
      "street": 1377,
      "postalCode": 1378
    },
    "latitude": 51.43579,
    "longitude": -2.53716
  },
  {
    "id": "7oX9bPhm6F",
    "name": "Hope & Anchor",
    "address": {
      "street": 1385,
      "postalCode": 1386
    },
    "latitude": 51.45327,
    "longitude": -2.60976
  },
  {
    "id": "ATygBigruw",
    "name": "Hope & Anchor",
    "address": {
      "street": 1392,
      "postalCode": 1393
    },
    "latitude": 51.4946,
    "longitude": -2.68285
  },
  {
    "id": "PxIeYUi2it",
    "name": "Horse & Jockey",
    "address": {
      "street": 1400,
      "postalCode": 1401
    },
    "latitude": 51.45587,
    "longitude": -2.52876
  },
  {
    "id": "nco4SVoReZ",
    "name": "Horts",
    "address": {
      "street": 1408,
      "postalCode": 1409
    },
    "latitude": 51.45571,
    "longitude": -2.59378
  },
  {
    "id": "ATlMuh5vnU",
    "name": "Hyde & Co.",
    "address": {
      "street": 1416,
      "postalCode": 1417
    },
    "latitude": 51.45587,
    "longitude": -2.60693
  },
  {
    "id": "EnQ2yO9k6S",
    "name": "The Ill Repute",
    "address": {
      "street": 288,
      "postalCode": 1423
    },
    "latitude": 51.45648,
    "longitude": -2.5792
  },
  {
    "id": "XutWnhG6Xz",
    "name": "Industry",
    "address": {
      "street": 94,
      "postalCode": 1430
    },
    "latitude": 51.47378,
    "longitude": -2.59114
  },
  {
    "id": "lDSrJbjUp7",
    "name": "Inn on the Green",
    "address": {
      "street": 1436,
      "postalCode": 1437
    },
    "latitude": 51.49465,
    "longitude": -2.5819
  },
  {
    "id": "CGrFXkQteG",
    "name": "The Jam Jar",
    "address": {
      "street": 1444,
      "postalCode": 1445
    },
    "latitude": 51.45949,
    "longitude": -2.57836
  },
  {
    "id": "fBAhD3USqU",
    "name": "Jersey Lily",
    "address": {
      "street": 86,
      "postalCode": 1452
    },
    "latitude": 51.46948,
    "longitude": -2.61397
  },
  {
    "id": "6u8Fky0iuy",
    "name": "The John Harvey Arms",
    "address": {
      "street": 1459,
      "postalCode": 1460
    },
    "latitude": 51.40473,
    "longitude": -2.58048
  },
  {
    "id": "khuwDDjpaa",
    "name": "Jolly Colliers",
    "address": {
      "street": 288,
      "postalCode": 1467
    },
    "latitude": 51.43852,
    "longitude": -2.6029
  },
  {
    "id": "nx6PaP7mjC",
    "name": "Jolly Roger",
    "address": {
      "street": 132,
      "postalCode": 133
    },
    "latitude": 51.46193,
    "longitude": -2.56506
  },
  {
    "id": "sSm5IjCjl2",
    "name": "Junction",
    "address": {
      "street": 358,
      "postalCode": 359
    },
    "latitude": 51.44689,
    "longitude": -2.59952
  },
  {
    "id": "unb7tEJ8Uh",
    "name": "KASK",
    "address": {
      "street": 170,
      "postalCode": 1486
    },
    "latitude": 51.44086,
    "longitude": -2.60375
  },
  {
    "id": "AjZS7zP01x",
    "name": "KASK 2",
    "address": {
      "street": 396,
      "postalCode": 397
    },
    "latitude": 51.47018,
    "longitude": -2.59393
  },
  {
    "id": "Os21cY5tnY",
    "name": "The Kensington Arms",
    "address": {
      "street": 1499,
      "postalCode": 1500
    },
    "latitude": 51.46726,
    "longitude": -2.60313
  },
  {
    "id": "MvNtH8gHjR",
    "name": "King Street Brew House",
    "address": {
      "street": 116,
      "postalCode": 1507
    },
    "latitude": 51.45215,
    "longitude": -2.59287
  },
  {
    "id": "RdKARBFxMC",
    "name": "King William Ale House",
    "address": {
      "street": 226,
      "postalCode": 351
    },
    "latitude": 51.45158,
    "longitude": -2.59484
  },
  {
    "id": "GCp6G9Z01V",
    "name": "The King's Arms",
    "address": {
      "street": 86,
      "postalCode": 1520
    },
    "latitude": 51.47005,
    "longitude": -2.61513
  },
  {
    "id": "Rg2HETFtJU",
    "name": "The King's Head",
    "address": {
      "street": 1527,
      "postalCode": 1528
    },
    "latitude": 51.45191,
    "longitude": -2.58719
  },
  {
    "id": "YhXtAXLKVU",
    "name": "The King's Head",
    "address": {
      "street": 1534,
      "postalCode": 1535
    },
    "latitude": 51.42118,
    "longitude": -2.62957
  },
  {
    "id": "Mqy1KcP8OE",
    "name": "The Kings Arms",
    "address": {
      "street": 1542,
      "postalCode": 1543
    },
    "latitude": 51.43437,
    "longitude": -2.54876
  },
  {
    "id": "5qWllZ3PWP",
    "name": "The Kings Head",
    "address": {
      "street": 1550,
      "postalCode": 1551
    },
    "latitude": 51.46378,
    "longitude": -2.55187
  },
  {
    "id": "Fg28H8aykG",
    "name": "Kings Head",
    "address": {
      "street": 419,
      "postalCode": 1558
    },
    "latitude": 51.46293,
    "longitude": -2.51677
  },
  {
    "id": "gSIjqpTi4b",
    "name": "The Kingsdown Vaults",
    "address": {
      "street": 1565,
      "postalCode": 1566
    },
    "latitude": 51.46172,
    "longitude": -2.59673
  },
  {
    "id": "4onZEsHcOd",
    "name": "The Knights Templar",
    "address": {
      "street": 1573,
      "postalCode": 1574
    },
    "latitude": 51.45079,
    "longitude": -2.58216
  },
  {
    "id": "QNgySow43D",
    "name": "The Knowle",
    "address": {
      "street": 1581,
      "postalCode": 1582
    },
    "latitude": 51.43477,
    "longitude": -2.56216
  },
  {
    "id": "ygKSNaKPCf",
    "name": "Kongs",
    "address": {
      "street": 226,
      "postalCode": 351
    },
    "latitude": 51.45167,
    "longitude": -2.59431
  },
  {
    "id": "eUm2PTuZnk",
    "name": "The Lamplighters",
    "address": {
      "street": 1594,
      "postalCode": 1595
    },
    "latitude": 51.48347,
    "longitude": -2.6823
  },
  {
    "id": "8EO0EOAgNG",
    "name": "Lane7",
    "address": {
      "street": 1602,
      "postalCode": 1603
    },
    "latitude": 51.44975,
    "longitude": -2.60191
  },
  {
    "id": "hJYc2OdELH",
    "name": "The Lanes",
    "address": {
      "street": 1610,
      "postalCode": 1611
    },
    "latitude": 51.45643,
    "longitude": -2.59362
  },
  {
    "id": "pjmc6dcVEr",
    "name": "Langton Court Hotel",
    "address": {
      "street": 1618,
      "postalCode": 1619
    },
    "latitude": 51.45014,
    "longitude": -2.54863
  },
  {
    "id": "QEtaCmuAKY",
    "name": "The Lansdown",
    "address": {
      "street": 1626,
      "postalCode": 1627
    },
    "latitude": 51.45448,
    "longitude": -2.61367
  },
  {
    "id": "pOOfIJc6gp",
    "name": "Lazy Dog",
    "address": {
      "street": 1083,
      "postalCode": 1084
    },
    "latitude": 51.48147,
    "longitude": -2.58274
  },
  {
    "id": "u8WTulJMLl",
    "name": "Lebeqs Tavern",
    "address": {
      "street": 434,
      "postalCode": 1640
    },
    "latitude": 51.46337,
    "longitude": -2.57048
  },
  {
    "id": "shdkx7lEP0",
    "name": "Left Handed Giant Brewery & Taproom",
    "address": {
      "street": 1647,
      "postalCode": 1648
    },
    "latitude": 51.4562,
    "longitude": -2.57196
  },
  {
    "id": "bKWFSwXcQ5",
    "name": "Left Handed Giant Brewpub",
    "address": {
      "street": 1655,
      "postalCode": 1656
    },
    "latitude": 51.45442,
    "longitude": -2.58939
  },
  {
    "id": "GatzgPpkgf",
    "name": "The Library",
    "address": {
      "street": -5,
      "postalCode": 1663
    },
    "latitude": 51.45412,
    "longitude": -2.59253
  },
  {
    "id": "m0hOMbTtak",
    "name": "The Lifeboat Inn",
    "address": {
      "street": 327,
      "postalCode": 1670
    },
    "latitude": 51.48897,
    "longitude": -2.67539
  },
  {
    "id": "n9jcqhr9Bi",
    "name": "Lime Kiln",
    "address": {
      "street": 194,
      "postalCode": 1677
    },
    "latitude": 51.45255,
    "longitude": -2.60352
  },
  {
    "id": "0xiCeTrRG4",
    "name": "The Lion",
    "address": {
      "street": 1684,
      "postalCode": 1685
    },
    "latitude": 51.45044,
    "longitude": -2.61314
  },
  {
    "id": "GuIghIasxB",
    "name": "The Little Grosvenor",
    "address": {
      "street": 178,
      "postalCode": 1692
    },
    "latitude": 51.44556,
    "longitude": -2.59287
  },
  {
    "id": "P0MmmrNwB9",
    "name": "Little Martha Brewing",
    "address": {
      "street": 1698,
      "postalCode": 1699
    },
    "latitude": 51.45133,
    "longitude": -2.57771
  },
  {
    "id": "KvMggrUwsy",
    "name": "The Llandoger Trow",
    "address": {
      "street": 226,
      "postalCode": 227
    },
    "latitude": 51.45187,
    "longitude": -2.59313
  },
  {
    "id": "ZoigUYeR3N",
    "name": "LOCAL.",
    "address": {
      "street": 170,
      "postalCode": 1486
    },
    "latitude": 51.4412,
    "longitude": -2.60223
  },
  {
    "id": "v59WctfAYc",
    "name": "Lodekka",
    "address": {
      "street": 1718,
      "postalCode": 1719
    },
    "latitude": 51.43717,
    "longitude": -2.55608
  },
  {
    "id": "KaKka8cALb",
    "name": "London Cocktail Club",
    "address": {
      "street": 501,
      "postalCode": 1726
    },
    "latitude": 51.45665,
    "longitude": -2.60774
  },
  {
    "id": "YckjYeOAt4",
    "name": "London Inn",
    "address": {
      "street": 1733,
      "postalCode": 1734
    },
    "latitude": 51.44081,
    "longitude": -2.60103
  },
  {
    "id": "l8asXjQTRr",
    "name": "The Long Bar",
    "address": {
      "street": 995,
      "postalCode": 1015
    },
    "latitude": 51.45565,
    "longitude": -2.58256
  },
  {
    "id": "jsaHVFUYtG",
    "name": "Loose Cannon",
    "address": {
      "street": 1602,
      "postalCode": 1603
    },
    "latitude": 51.44995,
    "longitude": -2.60198
  },
  {
    "id": "nkRJ9b3nKk",
    "name": "The Lord Raglan",
    "address": {
      "street": 1400,
      "postalCode": 1753
    },
    "latitude": 51.45718,
    "longitude": -2.52967
  },
  {
    "id": "yl8GkKCYVY",
    "name": "The Lost & Found",
    "address": {
      "street": 202,
      "postalCode": 1760
    },
    "latitude": 51.45709,
    "longitude": -2.60852
  },
  {
    "id": "p6vDeBBgKQ",
    "name": "Lost and Grounded Taproom",
    "address": {
      "street": 1767,
      "postalCode": 1768
    },
    "latitude": 51.45011,
    "longitude": -2.55477
  },
  {
    "id": "oRV70FSKok",
    "name": "Lost Horizon Yard Bar",
    "address": {
      "street": 1775,
      "postalCode": 1776
    },
    "latitude": 51.46083,
    "longitude": -2.5805
  },
  {
    "id": "x2EU5G9Rs0",
    "name": "The Louisiana",
    "address": {
      "street": 1783,
      "postalCode": 1784
    },
    "latitude": 51.44674,
    "longitude": -2.59641
  },
  {
    "id": "p6I3V3vEck",
    "name": "Lounge",
    "address": {
      "street": 170,
      "postalCode": 1791
    },
    "latitude": 51.44114,
    "longitude": -2.61221
  },
  {
    "id": "3uqHX6EImy",
    "name": "The Love Inn",
    "address": {
      "street": 636,
      "postalCode": 637
    },
    "latitude": 51.46315,
    "longitude": -2.58966
  },
  {
    "id": "yDc9j8lkBH",
    "name": "The Luckwell",
    "address": {
      "street": 1804,
      "postalCode": 1805
    },
    "latitude": 51.43606,
    "longitude": -2.61127
  },
  {
    "id": "N3io4WC4GO",
    "name": "LUPE Bar & Kitchen",
    "address": {
      "street": 170,
      "postalCode": 234
    },
    "latitude": 51.44071,
    "longitude": -2.60432
  },
  {
    "id": "Q3iai7clH9",
    "name": "M Caf\u00e9",
    "address": {
      "street": 1818,
      "postalCode": 1819
    },
    "latitude": 51.44742,
    "longitude": -2.59887
  },
  {
    "id": "rvhA9ZF0g1",
    "name": "Mackenzies Caf\u00e9 Bar",
    "address": {
      "street": 613,
      "postalCode": 242
    },
    "latitude": 51.4511,
    "longitude": -2.5983
  },
  {
    "id": "IPRSMvlOaB",
    "name": "The Mall",
    "address": {
      "street": 605,
      "postalCode": 1831
    },
    "latitude": 51.4564,
    "longitude": -2.62164
  },
  {
    "id": "GpAmkpYHIO",
    "name": "The Mardyke",
    "address": {
      "street": 303,
      "postalCode": 1838
    },
    "latitude": 51.44966,
    "longitude": -2.61326
  },
  {
    "id": "zH6KRMlKxv",
    "name": "Marquee",
    "address": {
      "street": 46,
      "postalCode": 1844
    },
    "latitude": 51.45487,
    "longitude": -2.60294
  },
  {
    "id": "bwC6wqPspI",
    "name": "The Masonic",
    "address": {
      "street": 170,
      "postalCode": 1851
    },
    "latitude": 51.4406,
    "longitude": -2.6063
  },
  {
    "id": "zI6rZJPWBx",
    "name": "Masons Arms",
    "address": {
      "street": 1858,
      "postalCode": 1859
    },
    "latitude": 51.48576,
    "longitude": -2.54998
  },
  {
    "id": "gajYncrah5",
    "name": "The Maytree",
    "address": {
      "street": 1866,
      "postalCode": 1867
    },
    "latitude": 51.42134,
    "longitude": -2.60845
  },
  {
    "id": "kCJCosP33x",
    "name": "Mechanics Arm",
    "address": {
      "street": 1874,
      "postalCode": 1875
    },
    "latitude": 51.46156,
    "longitude": -2.5375
  },
  {
    "id": "zwmF7wytN3",
    "name": "Merchants Arms",
    "address": {
      "street": 1881,
      "postalCode": 1882
    },
    "latitude": 51.44976,
    "longitude": -2.6184
  },
  {
    "id": "jJnRvPQNHV",
    "name": "Mercy Mercy Mercy",
    "address": {
      "street": 38,
      "postalCode": 39
    },
    "latitude": 51.45533,
    "longitude": -2.61855
  },
  {
    "id": "DORvJ4tGFv",
    "name": "Mickey Zoggs",
    "address": {
      "street": 1895,
      "postalCode": 1896
    },
    "latitude": 51.46051,
    "longitude": -2.58701
  },
  {
    "id": "1ARyMeUuje",
    "name": "Miles Arms",
    "address": {
      "street": 1902,
      "postalCode": 1903
    },
    "latitude": 51.49869,
    "longitude": -2.69407
  },
  {
    "id": "Ri1aNyc3zo",
    "name": "The Milk Thistle",
    "address": {
      "street": 1910,
      "postalCode": 1911
    },
    "latitude": 51.45505,
    "longitude": -2.59574
  },
  {
    "id": "Fjiu4wvH6O",
    "name": "The Mill House",
    "address": {
      "street": 1917,
      "postalCode": 1918
    },
    "latitude": 51.48683,
    "longitude": -2.6425
  },
  {
    "id": "2462Q4jc91",
    "name": "The Miner's Arms",
    "address": {
      "street": 1054,
      "postalCode": 1925
    },
    "latitude": 51.47119,
    "longitude": -2.57638
  },
  {
    "id": "fy2QtKCFzp",
    "name": "The Miners Arms",
    "address": {
      "street": 1932,
      "postalCode": 1933
    },
    "latitude": 51.43274,
    "longitude": -2.61111
  },
  {
    "id": "D9DwudYrE8",
    "name": "Moor Beer Co",
    "address": {
      "street": 1940,
      "postalCode": 1941
    },
    "latitude": 51.45236,
    "longitude": -2.57376
  },
  {
    "id": "0LGv1iCXnz",
    "name": "The Mothers' Ruin",
    "address": {
      "street": 457,
      "postalCode": 1948
    },
    "latitude": 51.45383,
    "longitude": -2.59302
  },
  {
    "id": "yU4FlYm8yX",
    "name": "The Mouse",
    "address": {
      "street": 1955,
      "postalCode": 1956
    },
    "latitude": 51.49275,
    "longitude": -2.61582
  },
  {
    "id": "AL6Rslv3C3",
    "name": "Mr Wolf's",
    "address": {
      "street": 457,
      "postalCode": 1963
    },
    "latitude": 51.4538,
    "longitude": -2.59416
  },
  {
    "id": "4DdV3ZVZUh",
    "name": "Mud Dock Cafe",
    "address": {
      "street": 1370,
      "postalCode": 1970
    },
    "latitude": 51.44925,
    "longitude": -2.59539
  },
  {
    "id": "tLZlaB8gsL",
    "name": "Mugshot",
    "address": {
      "street": 457,
      "postalCode": 458
    },
    "latitude": 51.45392,
    "longitude": -2.59352
  },
  {
    "id": "ygxIJ4HM77",
    "name": "Myrtle Tree",
    "address": {
      "street": 194,
      "postalCode": 195
    },
    "latitude": 51.45092,
    "longitude": -2.60727
  },
  {
    "id": "lnDjyuHFo4",
    "name": "Native Vine Redfield",
    "address": {
      "street": 928,
      "postalCode": 1989
    },
    "latitude": 51.4594,
    "longitude": -2.55466
  },
  {
    "id": "WhdQYp16rG",
    "name": "New Bristol Brewery",
    "address": {
      "street": 1996,
      "postalCode": 1997
    },
    "latitude": 51.46103,
    "longitude": -2.58263
  },
  {
    "id": "c8ppxb5LBu",
    "name": "New Found Out",
    "address": {
      "street": 2004,
      "postalCode": 2005
    },
    "latitude": 51.44281,
    "longitude": -2.57997
  },
  {
    "id": "rMI8VihSQ8",
    "name": "No. 1 Harbourside",
    "address": {
      "street": 2012,
      "postalCode": 242
    },
    "latitude": 51.4521,
    "longitude": -2.59806
  },
  {
    "id": "AJw2KK78Th",
    "name": "No. 51",
    "address": {
      "street": 636,
      "postalCode": 2019
    },
    "latitude": 51.46218,
    "longitude": -2.5905
  },
  {
    "id": "82WH2TLF9X",
    "name": "Nova Scotia",
    "address": {
      "street": 2026,
      "postalCode": 2027
    },
    "latitude": 51.44723,
    "longitude": -2.61863
  },
  {
    "id": "5r02RAYcEo",
    "name": "NQ64",
    "address": {
      "street": 388,
      "postalCode": 389
    },
    "latitude": 51.45324,
    "longitude": -2.59593
  },
  {
    "id": "VDC7nq1iYe",
    "name": "O'Neill's",
    "address": {
      "street": 388,
      "postalCode": 2040
    },
    "latitude": 51.45361,
    "longitude": -2.59621
  },
  {
    "id": "oCzvvI29Sv",
    "name": "Old Castle Green",
    "address": {
      "street": 755,
      "postalCode": 756
    },
    "latitude": 51.45706,
    "longitude": -2.57874
  },
  {
    "id": "ekmurvfXMP",
    "name": "Old Crow",
    "address": {
      "street": 2053,
      "postalCode": 2054
    },
    "latitude": 51.50992,
    "longitude": -2.61885
  },
  {
    "id": "u77LZjrqHW",
    "name": "The Old Duke",
    "address": {
      "street": 226,
      "postalCode": 227
    },
    "latitude": 51.45218,
    "longitude": -2.59321
  },
  {
    "id": "9m2g9sBTXV",
    "name": "The Old England",
    "address": {
      "street": 2067,
      "postalCode": 2068
    },
    "latitude": 51.46704,
    "longitude": -2.58909
  },
  {
    "id": "keR6L20wbJ",
    "name": "The Old Fish Market",
    "address": {
      "street": 388,
      "postalCode": 2075
    },
    "latitude": 51.45372,
    "longitude": -2.59308
  },
  {
    "id": "esqwPX4xH8",
    "name": "The Old Globe",
    "address": {
      "street": 249,
      "postalCode": 2082
    },
    "latitude": 51.44121,
    "longitude": -2.59845
  },
  {
    "id": "0mQbUU58jR",
    "name": "The Old Market Assembly",
    "address": {
      "street": 288,
      "postalCode": 1423
    },
    "latitude": 51.45691,
    "longitude": -2.5791
  },
  {
    "id": "6dT0b6qR8m",
    "name": "Old Market Tavern",
    "address": {
      "street": 995,
      "postalCode": 2095
    },
    "latitude": 51.45623,
    "longitude": -2.58215
  },
  {
    "id": "lzw08cFHIV",
    "name": "The Old Post Office",
    "address": {
      "street": 1075,
      "postalCode": 2102
    },
    "latitude": 51.48067,
    "longitude": -2.52863
  },
  {
    "id": "7r1Hj4yXJN",
    "name": "The Old Stillage",
    "address": {
      "street": 928,
      "postalCode": 2109
    },
    "latitude": 51.45872,
    "longitude": -2.55809
  },
  {
    "id": "BPfazdRLue",
    "name": "The Oldbury Court Inn",
    "address": {
      "street": 2116,
      "postalCode": 2117
    },
    "latitude": 51.48776,
    "longitude": -2.52014
  },
  {
    "id": "UlF8NgebYb",
    "name": "OMG Bar",
    "address": {
      "street": 1319,
      "postalCode": 2124
    },
    "latitude": 51.45348,
    "longitude": -2.60087
  },
  {
    "id": "c0AGt8wKQE",
    "name": "Open Arms",
    "address": {
      "street": 2131,
      "postalCode": 2132
    },
    "latitude": 51.45769,
    "longitude": -2.59843
  },
  {
    "id": "mCbM6O5bRF",
    "name": "The Orchard Inn",
    "address": {
      "street": 2139,
      "postalCode": 2140
    },
    "latitude": 51.44741,
    "longitude": -2.60954
  },
  {
    "id": "h7c4oEfaOQ",
    "name": "The Ostrich Inn",
    "address": {
      "street": 2147,
      "postalCode": 2148
    },
    "latitude": 51.44789,
    "longitude": -2.59389
  },
  {
    "id": "NcRhRix3Iq",
    "name": "The Oxford",
    "address": {
      "street": 1698,
      "postalCode": 2155
    },
    "latitude": 51.44221,
    "longitude": -2.57916
  },
  {
    "id": "LfW9EwNNz8",
    "name": "The Packhorse",
    "address": {
      "street": 2162,
      "postalCode": 2163
    },
    "latitude": 51.45794,
    "longitude": -2.56665
  },
  {
    "id": "DrrKW1gJrE",
    "name": "The Pegasus",
    "address": {
      "street": 2170,
      "postalCode": 2171
    },
    "latitude": 51.50379,
    "longitude": -2.60139
  },
  {
    "id": "dDWPKbX0BS",
    "name": "The Phoenix",
    "address": {
      "street": 2178,
      "postalCode": 2179
    },
    "latitude": 51.45848,
    "longitude": -2.58311
  },
  {
    "id": "YBOI3hOUCn",
    "name": "The Pickled Parrot",
    "address": {
      "street": 928,
      "postalCode": 2186
    },
    "latitude": 51.45961,
    "longitude": -2.5468
  },
  {
    "id": "rqJB4IWQAC",
    "name": "The Pied Horse",
    "address": {
      "street": 2193,
      "postalCode": 2194
    },
    "latitude": 51.45971,
    "longitude": -2.53717
  },
  {
    "id": "HvYXcthIfg",
    "name": "The Pilgrim Inn",
    "address": {
      "street": 1542,
      "postalCode": 2201
    },
    "latitude": 51.43525,
    "longitude": -2.54832
  },
  {
    "id": "dcTzZbP3Ez",
    "name": "The Pipe & Slippers",
    "address": {
      "street": 396,
      "postalCode": 2208
    },
    "latitude": 51.46461,
    "longitude": -2.5896
  },
  {
    "id": "JgmWIdCKr3",
    "name": "Pitcher & Piano",
    "address": {
      "street": 613,
      "postalCode": 242
    },
    "latitude": 51.45004,
    "longitude": -2.59876
  },
  {
    "id": "hG4x5PcAXp",
    "name": "Pizzucci",
    "address": {
      "street": 94,
      "postalCode": 1097
    },
    "latitude": 51.47187,
    "longitude": -2.59246
  },
  {
    "id": "G8IMgcZjQg",
    "name": "The Plough",
    "address": {
      "street": 132,
      "postalCode": 2227
    },
    "latitude": 51.46173,
    "longitude": -2.56319
  },
  {
    "id": "by1jIiCnL6",
    "name": "Port of Call",
    "address": {
      "street": 2234,
      "postalCode": 2235
    },
    "latitude": 51.47008,
    "longitude": -2.61547
  },
  {
    "id": "bhY5G1MCBD",
    "name": "Portcullis",
    "address": {
      "street": 2242,
      "postalCode": 2243
    },
    "latitude": 51.45294,
    "longitude": -2.62387
  },
  {
    "id": "H0YlviYxMt",
    "name": "Porto Lounge",
    "address": {
      "street": 1075,
      "postalCode": 2102
    },
    "latitude": 51.48035,
    "longitude": -2.5287
  },
  {
    "id": "zuuoaN1BLD",
    "name": "Portwall Tavern",
    "address": {
      "street": 2256,
      "postalCode": 2257
    },
    "latitude": 51.4495,
    "longitude": -2.58961
  },
  {
    "id": "Z1a847Xdv7",
    "name": "Post Office Tavern",
    "address": {
      "street": 2263,
      "postalCode": 2264
    },
    "latitude": 51.49104,
    "longitude": -2.61675
  },
  {
    "id": "RFh82gSd7s",
    "name": "The Prince of Wales",
    "address": {
      "street": 427,
      "postalCode": 428
    },
    "latitude": 51.4897,
    "longitude": -2.62264
  },
  {
    "id": "kipVKlFmZV",
    "name": "The Prince of Wales",
    "address": {
      "street": 94,
      "postalCode": 2276
    },
    "latitude": 51.47045,
    "longitude": -2.59335
  },
  {
    "id": "iPYQJ1iOzq",
    "name": "The Pump House",
    "address": {
      "street": 1881,
      "postalCode": 1882
    },
    "latitude": 51.44831,
    "longitude": -2.61808
  },
  {
    "id": "Hu91wTgMl8",
    "name": "Punchbowl",
    "address": {
      "street": 995,
      "postalCode": 2095
    },
    "latitude": 51.45611,
    "longitude": -2.58273
  },
  {
    "id": "cP6hWTyiCB",
    "name": "The Quadrant",
    "address": {
      "street": 561,
      "postalCode": 2295
    },
    "latitude": 51.45498,
    "longitude": -2.61919
  },
  {
    "id": "G6VDDpSsz8",
    "name": "The Queens Head",
    "address": {
      "street": 132,
      "postalCode": 2302
    },
    "latitude": 51.46185,
    "longitude": -2.5666
  },
  {
    "id": "V6P7PduePo",
    "name": "The Queens Head",
    "address": {
      "street": 202,
      "postalCode": 2308
    },
    "latitude": 51.41094,
    "longitude": -2.61983
  },
  {
    "id": "yofTQ41MGs",
    "name": "Queens Head",
    "address": {
      "street": 1075,
      "postalCode": 2315
    },
    "latitude": 51.47291,
    "longitude": -2.55201
  },
  {
    "id": "HcaJePxrO2",
    "name": "Quinton House",
    "address": {
      "street": 2322,
      "postalCode": 2323
    },
    "latitude": 51.45703,
    "longitude": -2.60929
  },
  {
    "id": "W7mzCY5HcV",
    "name": "Racks",
    "address": {
      "street": 2330,
      "postalCode": 937
    },
    "latitude": 51.45877,
    "longitude": -2.61093
  },
  {
    "id": "irjobfXTul",
    "name": "The Railway Tavern",
    "address": {
      "street": 1594,
      "postalCode": 2337
    },
    "latitude": 51.47911,
    "longitude": -2.53018
  },
  {
    "id": "xh963xvMky",
    "name": "The Red Church",
    "address": {
      "street": 928,
      "postalCode": 2344
    },
    "latitude": 51.45949,
    "longitude": -2.55071
  },
  {
    "id": "i3CcUx4ns6",
    "name": "The Red Lion",
    "address": {
      "street": 1550,
      "postalCode": 2350
    },
    "latitude": 51.46159,
    "longitude": -2.55475
  },
  {
    "id": "TsEUYShELY",
    "name": "Reina",
    "address": {
      "street": 46,
      "postalCode": 2357
    },
    "latitude": 51.45454,
    "longitude": -2.60308
  },
  {
    "id": "LEPAA4Dmv6",
    "name": "Renato's",
    "address": {
      "street": 226,
      "postalCode": 569
    },
    "latitude": 51.4519,
    "longitude": -2.5948
  },
  {
    "id": "69weEQ2gDT",
    "name": "Revolution",
    "address": {
      "street": 457,
      "postalCode": 2370
    },
    "latitude": 51.45368,
    "longitude": -2.59358
  },
  {
    "id": "pwvvsWNifg",
    "name": "The Rising Sun",
    "address": {
      "street": 794,
      "postalCode": 795
    },
    "latitude": 51.44215,
    "longitude": -2.618
  },
  {
    "id": "qw1UFgwRw1",
    "name": "The Rising Sun",
    "address": {
      "street": 2382,
      "postalCode": 2383
    },
    "latitude": 51.43874,
    "longitude": -2.59368
  },
  {
    "id": "JyOPpyL9re",
    "name": "The Robert Fitzharding",
    "address": {
      "street": 1733,
      "postalCode": 2390
    },
    "latitude": 51.4412,
    "longitude": -2.60083
  },
  {
    "id": "NXSr3w9YlZ",
    "name": "Robin Hood",
    "address": {
      "street": 1347,
      "postalCode": 2132
    },
    "latitude": 51.45861,
    "longitude": -2.59937
  },
  {
    "id": "xl2Y5KUpsO",
    "name": "The Robins",
    "address": {
      "street": 2402,
      "postalCode": 2403
    },
    "latitude": 51.43498,
    "longitude": -2.61946
  },
  {
    "id": "zNBAIAl6yS",
    "name": "Rope Walk",
    "address": {
      "street": 2410,
      "postalCode": 2411
    },
    "latitude": 51.44505,
    "longitude": -2.59265
  },
  {
    "id": "0WzlH6t532",
    "name": "Rose and Crown",
    "address": {
      "street": 419,
      "postalCode": 2418
    },
    "latitude": 51.46202,
    "longitude": -2.52349
  },
  {
    "id": "QgGHWwvpW7",
    "name": "Rose of Denmark",
    "address": {
      "street": 2425,
      "postalCode": 2426
    },
    "latitude": 51.44967,
    "longitude": -2.62129
  },
  {
    "id": "XltB1K0mhV",
    "name": "Rough Trade",
    "address": {
      "street": 2433,
      "postalCode": 2434
    },
    "latitude": 51.45663,
    "longitude": -2.59391
  },
  {
    "id": "huL5QeDY9v",
    "name": "The Royal Oak",
    "address": {
      "street": 94,
      "postalCode": 2441
    },
    "latitude": 51.48345,
    "longitude": -2.58663
  },
  {
    "id": "nmh1TdRAXo",
    "name": "The Royal Oak",
    "address": {
      "street": 605,
      "postalCode": 1831
    },
    "latitude": 51.45599,
    "longitude": -2.62146
  },
  {
    "id": "sdq36pmw2V",
    "name": "The Sandringham",
    "address": {
      "street": 2453,
      "postalCode": 2454
    },
    "latitude": 51.441,
    "longitude": -2.55532
  },
  {
    "id": "DT0QyL0x5H",
    "name": "The Scrandit",
    "address": {
      "street": 683,
      "postalCode": 684
    },
    "latitude": 51.45622,
    "longitude": -2.59714
  },
  {
    "id": "oZ0uV8fKjU",
    "name": "Seamus O'Donnell's",
    "address": {
      "street": 457,
      "postalCode": 1948
    },
    "latitude": 51.45379,
    "longitude": -2.59323
  },
  {
    "id": "OFpMhfZyIa",
    "name": "Seven Stars",
    "address": {
      "street": 2472,
      "postalCode": 2473
    },
    "latitude": 51.45223,
    "longitude": -2.58966
  },
  {
    "id": "6HvwD0q1Zy",
    "name": "Shakespeare",
    "address": {
      "street": 2479,
      "postalCode": 2480
    },
    "latitude": 51.47029,
    "longitude": -2.60636
  },
  {
    "id": "PPgwSCogts",
    "name": "The Shakespeare",
    "address": {
      "street": 2487,
      "postalCode": 2488
    },
    "latitude": 51.44958,
    "longitude": -2.5971
  },
  {
    "id": "Zig3BKO17S",
    "name": "The Shakespeare",
    "address": {
      "street": 2494,
      "postalCode": 2495
    },
    "latitude": 51.44346,
    "longitude": -2.57975
  },
  {
    "id": "KPgeOFNwoz",
    "name": "Shield and Dagger",
    "address": {
      "street": 2502,
      "postalCode": 2503
    },
    "latitude": 51.40508,
    "longitude": -2.57182
  },
  {
    "id": "8Rdr8S73yE",
    "name": "The Ship",
    "address": {
      "street": 2510,
      "postalCode": 2511
    },
    "latitude": 51.45572,
    "longitude": -2.59882
  },
  {
    "id": "2fEi0acjVr",
    "name": "The Ship Inn",
    "address": {
      "street": 2518,
      "postalCode": 2519
    },
    "latitude": 51.44744,
    "longitude": -2.58905
  },
  {
    "id": "aA0oSJwxKa",
    "name": "The Sidings",
    "address": {
      "street": 2526,
      "postalCode": 2527
    },
    "latitude": 51.44841,
    "longitude": -2.58409
  },
  {
    "id": "Hy112GCWQ9",
    "name": "Sidney & Eden",
    "address": {
      "street": 94,
      "postalCode": 2533
    },
    "latitude": 51.47871,
    "longitude": -2.58991
  },
  {
    "id": "1hdmnt3ndb",
    "name": "Slug & Lettuce City Centre",
    "address": {
      "street": 457,
      "postalCode": 458
    },
    "latitude": 51.45401,
    "longitude": -2.5942
  },
  {
    "id": "uvSNhS3Jci",
    "name": "Slug & Lettuce Harbourside",
    "address": {
      "street": 2546,
      "postalCode": 2547
    },
    "latitude": 51.44978,
    "longitude": -2.60147
  },
  {
    "id": "phQJSdnUZh",
    "name": "smallBAR",
    "address": {
      "street": 226,
      "postalCode": 569
    },
    "latitude": 51.45186,
    "longitude": -2.595
  },
  {
    "id": "ieBTh79iwZ",
    "name": "Smoke & Mirrors",
    "address": {
      "street": 2560,
      "postalCode": 2561
    },
    "latitude": 51.45288,
    "longitude": -2.59885
  },
  {
    "id": "BFhqtfhIwB",
    "name": "Snuffy Jack's Ale House",
    "address": {
      "street": 1075,
      "postalCode": 2568
    },
    "latitude": 51.48123,
    "longitude": -2.52802
  },
  {
    "id": "rM6QSe7cRh",
    "name": "The Social",
    "address": {
      "street": 396,
      "postalCode": 2208
    },
    "latitude": 51.46491,
    "longitude": -2.58978
  },
  {
    "id": "FwO7pk7Z2Q",
    "name": "Somerset House",
    "address": {
      "street": 561,
      "postalCode": 2581
    },
    "latitude": 51.45465,
    "longitude": -2.61956
  },
  {
    "id": "WD68hsRKI2",
    "name": "Southbank Club",
    "address": {
      "street": 810,
      "postalCode": 2588
    },
    "latitude": 51.4438,
    "longitude": -2.59995
  },
  {
    "id": "YIIlZJUUXC",
    "name": "Southside",
    "address": {
      "street": 210,
      "postalCode": 2595
    },
    "latitude": 51.44033,
    "longitude": -2.5738
  },
  {
    "id": "qBSdxrYJHR",
    "name": "The Sportsman",
    "address": {
      "street": 102,
      "postalCode": 103
    },
    "latitude": 51.47926,
    "longitude": -2.58685
  },
  {
    "id": "A6s5WHqNkV",
    "name": "Sportsmans",
    "address": {
      "street": 1271,
      "postalCode": 2608
    },
    "latitude": 51.45562,
    "longitude": -2.59734
  },
  {
    "id": "ZevwapK7JH",
    "name": "The Spotted Cow",
    "address": {
      "street": 170,
      "postalCode": 2615
    },
    "latitude": 51.44,
    "longitude": -2.60796
  },
  {
    "id": "gN4LXSiTGi",
    "name": "The Spotted Cow",
    "address": {
      "street": 1263,
      "postalCode": 1264
    },
    "latitude": 51.47488,
    "longitude": -2.5316
  },
  {
    "id": "IBFfORvOSi",
    "name": "The Stable",
    "address": {
      "street": 613,
      "postalCode": 242
    },
    "latitude": 51.45155,
    "longitude": -2.5982
  },
  {
    "id": "lKeKMCGrpU",
    "name": "Stag & Hounds",
    "address": {
      "street": 995,
      "postalCode": 1015
    },
    "latitude": 51.45556,
    "longitude": -2.58293
  },
  {
    "id": "tqBRSrbjtY",
    "name": "The Star",
    "address": {
      "street": 1075,
      "postalCode": 2639
    },
    "latitude": 51.47632,
    "longitude": -2.5398
  },
  {
    "id": "tWVYLSiYfb",
    "name": "Star & Dove",
    "address": {
      "street": 2646,
      "postalCode": 2647
    },
    "latitude": 51.44144,
    "longitude": -2.58215
  },
  {
    "id": "Irb5BgvEgv",
    "name": "Star & Garter",
    "address": {
      "street": 2653,
      "postalCode": 2654
    },
    "latitude": 51.46703,
    "longitude": -2.58275
  },
  {
    "id": "ei6IOrA8JO",
    "name": "Steam",
    "address": {
      "street": 86,
      "postalCode": 2661
    },
    "latitude": 51.46453,
    "longitude": -2.61158
  },
  {
    "id": "VWQlN7Mnck",
    "name": "Steam Crane",
    "address": {
      "street": 170,
      "postalCode": 2667
    },
    "latitude": 51.44155,
    "longitude": -2.60171
  },
  {
    "id": "j2CA9lOcO2",
    "name": "Strawberry Thief",
    "address": {
      "street": 1408,
      "postalCode": 2674
    },
    "latitude": 51.45555,
    "longitude": -2.59477
  },
  {
    "id": "jvqcCHMw6W",
    "name": "The Sugar Loaf",
    "address": {
      "street": 2680,
      "postalCode": 2681
    },
    "latitude": 51.46712,
    "longitude": -2.56502
  },
  {
    "id": "gk5BE7FPq7",
    "name": "Supreme Sports Lounge",
    "address": {
      "street": 2688,
      "postalCode": 2689
    },
    "latitude": 51.44741,
    "longitude": -2.56864
  },
  {
    "id": "FX6GvItB5P",
    "name": "The Swan with Two Necks",
    "address": {
      "street": 2695,
      "postalCode": 2696
    },
    "latitude": 51.45911,
    "longitude": -2.57933
  },
  {
    "id": "yBhUudw1l8",
    "name": "The Three Lions",
    "address": {
      "street": 288,
      "postalCode": 2703
    },
    "latitude": 51.43519,
    "longitude": -2.6079
  },
  {
    "id": "EFUI6qqkJV",
    "name": "The Three Tuns",
    "address": {
      "street": 194,
      "postalCode": 2710
    },
    "latitude": 51.45109,
    "longitude": -2.60498
  },
  {
    "id": "G9c56qoXwC",
    "name": "The Thunderbolt",
    "address": {
      "street": 2717,
      "postalCode": 2718
    },
    "latitude": 51.44248,
    "longitude": -2.57432
  },
  {
    "id": "93eFeztevt",
    "name": "Tobacco Factory",
    "address": {
      "street": 2725,
      "postalCode": 2726
    },
    "latitude": 51.44223,
    "longitude": -2.6135
  },
  {
    "id": "B1ETyqcQR0",
    "name": "Toto's Winebar",
    "address": {
      "street": 2733,
      "postalCode": 2734
    },
    "latitude": 51.45233,
    "longitude": -2.59143
  },
  {
    "id": "yHjBFsr8dg",
    "name": "The Treble Chance",
    "address": {
      "street": 2170,
      "postalCode": 2741
    },
    "latitude": 51.49992,
    "longitude": -2.61164
  },
  {
    "id": "TB2J8n03Ai",
    "name": "The Trooper",
    "address": {
      "street": 2748,
      "postalCode": 2749
    },
    "latitude": 51.45219,
    "longitude": -2.5237
  },
  {
    "id": "sBODEaI5V9",
    "name": "The Tythings",
    "address": {
      "street": 2756,
      "postalCode": 2757
    },
    "latitude": 51.41239,
    "longitude": -2.62072
  },
  {
    "id": "wKbAXM9Usa",
    "name": "Under the Stars",
    "address": {
      "street": 140,
      "postalCode": 141
    },
    "latitude": 51.45188,
    "longitude": -2.59752
  },
  {
    "id": "nLXqBzzELE",
    "name": "V-Shed",
    "address": {
      "street": 2012,
      "postalCode": 242
    },
    "latitude": 51.44985,
    "longitude": -2.59884
  },
  {
    "id": "qorZOczBmn",
    "name": "The Van Dyck Forum",
    "address": {
      "street": 1075,
      "postalCode": 2776
    },
    "latitude": 51.47952,
    "longitude": -2.53017
  },
  {
    "id": "gABBMAtDPV",
    "name": "Veeno",
    "address": {
      "street": 2783,
      "postalCode": 2784
    },
    "latitude": 51.45176,
    "longitude": -2.58035
  },
  {
    "id": "5q9NCoYJrW",
    "name": "The Victoria",
    "address": {
      "street": 2791,
      "postalCode": 2792
    },
    "latitude": 51.49371,
    "longitude": -2.61489
  },
  {
    "id": "FMVpQ6xTU6",
    "name": "The Victoria",
    "address": {
      "street": 2798,
      "postalCode": 2799
    },
    "latitude": 51.47027,
    "longitude": -2.57396
  },
  {
    "id": "fo9EZBlUCE",
    "name": "Victoria",
    "address": {
      "street": 2806,
      "postalCode": 2807
    },
    "latitude": 51.45965,
    "longitude": -2.6111
  },
  {
    "id": "BsgxqEihug",
    "name": "The Victoria Park",
    "address": {
      "street": 2814,
      "postalCode": 2815
    },
    "latitude": 51.43826,
    "longitude": -2.58969
  },
  {
    "id": "235sd3i90A",
    "name": "Vittoria",
    "address": {
      "street": 86,
      "postalCode": 2822
    },
    "latitude": 51.46213,
    "longitude": -2.60846
  },
  {
    "id": "phyoP2KPFZ",
    "name": "The Volunteer Tavern",
    "address": {
      "street": 2829,
      "postalCode": 2830
    },
    "latitude": 51.45765,
    "longitude": -2.58207
  },
  {
    "id": "Iql0grK2K4",
    "name": "The W. G. Grace",
    "address": {
      "street": 86,
      "postalCode": 87
    },
    "latitude": 51.46289,
    "longitude": -2.60869
  },
  {
    "id": "cfXRpDWAyD",
    "name": "Wackum Inn",
    "address": {
      "street": 1550,
      "postalCode": 2842
    },
    "latitude": 51.46595,
    "longitude": -2.54259
  },
  {
    "id": "RgeijQ87FR",
    "name": "Walkabout",
    "address": {
      "street": 778,
      "postalCode": 1048
    },
    "latitude": 51.45427,
    "longitude": -2.594
  },
  {
    "id": "W44x3z9U4i",
    "name": "Watershed",
    "address": {
      "street": 613,
      "postalCode": 242
    },
    "latitude": 51.45171,
    "longitude": -2.59812
  },
  {
    "id": "MEZ5Dx0c2G",
    "name": "The Wellington",
    "address": {
      "street": 94,
      "postalCode": 2861
    },
    "latitude": 51.4888,
    "longitude": -2.58526
  },
  {
    "id": "YujuAFZtDG",
    "name": "Wessex Flyer",
    "address": {
      "street": 2868,
      "postalCode": 2869
    },
    "latitude": 51.41745,
    "longitude": -2.58708
  },
  {
    "id": "i0TlDRU9m6",
    "name": "The Westbury Park Tavern",
    "address": {
      "street": 2876,
      "postalCode": 2877
    },
    "latitude": 51.48053,
    "longitude": -2.61143
  },
  {
    "id": "SQseZ5SpR9",
    "name": "The Whitchurch",
    "address": {
      "street": 2884,
      "postalCode": 2885
    },
    "latitude": 51.41442,
    "longitude": -2.57153
  },
  {
    "id": "FUzPFfauTN",
    "name": "White Bear",
    "address": {
      "street": 2131,
      "postalCode": 2892
    },
    "latitude": 51.46051,
    "longitude": -2.60157
  },
  {
    "id": "1veYKmQK3s",
    "name": "The White Hart",
    "address": {
      "street": 2898,
      "postalCode": 2899
    },
    "latitude": 51.44368,
    "longitude": -2.59385
  },
  {
    "id": "MACmc641yo",
    "name": "The White Hart",
    "address": {
      "street": 2904,
      "postalCode": 2905
    },
    "latitude": 51.45844,
    "longitude": -2.59359
  },
  {
    "id": "TiVVeKWVUN",
    "name": "White Harte",
    "address": {
      "street": 2912,
      "postalCode": 2913
    },
    "latitude": 51.45534,
    "longitude": -2.60291
  },
  {
    "id": "cqdrsOxZfQ",
    "name": "The White Horse",
    "address": {
      "street": 327,
      "postalCode": 2920
    },
    "latitude": 51.49403,
    "longitude": -2.61849
  },
  {
    "id": "GugtJsD3O3",
    "name": "White Lion",
    "address": {
      "street": 2927,
      "postalCode": 2928
    },
    "latitude": 51.49504,
    "longitude": -2.61722
  },
  {
    "id": "ewQU8AHqJk",
    "name": "The White Lion",
    "address": {
      "street": 1910,
      "postalCode": 1911
    },
    "latitude": 51.45516,
    "longitude": -2.59572
  },
  {
    "id": "FxIIOPSQ4l",
    "name": "White Lion Inn",
    "address": {
      "street": 2242,
      "postalCode": 2941
    },
    "latitude": 51.45322,
    "longitude": -2.62515
  },
  {
    "id": "932H325trL",
    "name": "Whitehall Tavern",
    "address": {
      "street": 2948,
      "postalCode": 2949
    },
    "latitude": 51.46287,
    "longitude": -2.55736
  },
  {
    "id": "RgL4IufVIa",
    "name": "The Whitmore Tap",
    "address": {
      "street": 86,
      "postalCode": 2956
    },
    "latitude": 51.46438,
    "longitude": -2.6093
  },
  {
    "id": "Re8hhWn9Qc",
    "name": "Wiper and True Barrel Store, St Werburghs",
    "address": {
      "street": 2234,
      "postalCode": 2963
    },
    "latitude": 51.46991,
    "longitude": -2.57633
  },
  {
    "id": "f2GeEIxpMX",
    "name": "Wiper and True Taproom, Old Market",
    "address": {
      "street": 132,
      "postalCode": 2970
    },
    "latitude": 51.45891,
    "longitude": -2.57486
  },
  {
    "id": "dHrNstCZOs",
    "name": "The Woods",
    "address": {
      "street": 2977,
      "postalCode": 2978
    },
    "latitude": 51.45539,
    "longitude": -2.60339
  },
  {
    "id": "7oRXdozM3s",
    "name": "Ye Shakespeare",
    "address": {
      "street": 1527,
      "postalCode": 2985
    },
    "latitude": 51.45161,
    "longitude": -2.58698
  },
  {
    "id": "j8E8sTSFWF",
    "name": "The Yeoman",
    "address": {
      "street": 210,
      "postalCode": 2992
    },
    "latitude": 51.41332,
    "longitude": -2.55925
  },
  {
    "id": "abfDsyolNP",
    "name": "YHA Bristol Caf\u00e9 & Bar",
    "address": {
      "street": 140,
      "postalCode": 141
    },
    "latitude": 51.44977,
    "longitude": -2.59739
  },
  {
    "id": "fAJ8ZiyIWW",
    "name": "Zed Alley",
    "address": {
      "street": 3002,
      "postalCode": 3004
    },
    "latitude": 51.45555,
    "longitude": -2.59721
  },
  {
    "id": "hgiq5w3Vn7",
    "name": "Zero Degrees",
    "address": {
      "street": 1271,
      "postalCode": 3010
    },
    "latitude": 51.45628,
    "longitude": -2.59794
  }
]